RADCAL                  
1 22698U 93041A   12042.64531807  .00000179  00000-0  70818-4 0  1264
2 22698  89.5513 336.7902 0091005  33.1289 327.5551 14.22935404967128
STRV 1A                 
1 23125U 94034B   12040.82592463  .00002366  00000-0  64741-3 0  9508
2 23125   7.3870 273.8992 6787268 262.8713  21.6688  2.92017332167366
STRV 1B                 
1 23126U 94034C   12041.69527108  .00002315  00000-0  45738-3 0   127
2 23126   7.0536 204.4574 6730333  41.1689 353.6053  3.00504349170255
REX 2                   
1 23814U 96014A   12041.95682523  .00000101  00000-0  39356-4 0  4915
2 23814  90.1514 289.4366 0024133  27.5581 332.6886 14.24004707827405
COSMOS 2346             
1 24953U 97052A   12042.23185996  .00000046  00000-0  29842-4 0  3485
2 24953  82.9227 310.3937 0038593 290.8647  68.8381 13.79466909724220
ARGOS                   
1 25634U 99008A   12042.18915250  .00000051  00000-0  45937-4 0  5181
2 25634  98.8730 103.0906 0010989  61.4820 298.7435 14.19000498671462
HELIOS 1B               
1 25977U 99064A   12042.67080714  .00000431  00000-0  66750-4 0  5497
2 25977  98.2759  90.4705 0002317  86.2543 273.8924 14.78436799655120
MTI                     
1 26102U 00014A   12042.85275947  .00002984  00000-0  16150-3 0  6190
2 26102  97.3402 177.8473 0018628 353.6620 157.5376 15.15254190655985
STRV 1C                 
1 26610U 00072C   12040.28014701 -.00000060  00000-0  00000+0 0  3141
2 26610   6.9723 321.5380 7346508 340.9305   2.0863  2.03466944 83517
MIDSTAR-1               
1 30773U 07006B   12041.95061402  .00001300  00000-0  59990-4 0  4128
2 30773  46.0805 230.1446 0009124  28.2073 331.9321 15.26879488274589
CFESAT                  
1 30777U 07006F   12042.20985617  .00002908  00000-0  19786-3 0  2877
2 30777  35.4327 340.4356 0005556 326.5916  33.4450 15.06063041270990
NFIRE                   
1 31140U 07014A   12042.53998571  .00008975  00000-0  18646-3 0  7082
2 31140  48.2279  83.3249 0008388 258.7687 101.2304 15.46289127272706
SPIRALE A               
1 33751U 09008C   12042.63683577  .00013189  00000-0  87168-3 0  7645
2 33751   1.8392 184.0134 6730617  39.5299 353.7532  3.03677050 26403
SPIRALE B               
1 33752U 09008D   12042.07843499  .00003750  00000-0  10202-2 0  6674
2 33752   1.8590 223.8337 7212389 320.9248   4.4939  2.36853012 24996
TACSAT 3                
1 35001U 09028A   12042.44626682  .00080127  00000-0  56635-3 0  8619
2 35001  40.4478 141.5274 0006410  70.4966 289.6512 15.72941474154394
